ONEWEB-0229             
1 48779U 21045N   24342.55028802  .00000029  00000+0  43591-4 0  9998
2 48779  87.9074  10.0161 0001762  87.5971 272.5361 13.15548706171223
ONEWEB-0228             
1 48780U 21045P   24342.81094284 -.00000070  00000+0 -22046-3 0  9995
2 48780  87.9069   9.9432 0001732  89.5537 270.5791 13.15548258172301
ONEWEB-0232             
1 48781U 21045Q   24342.55820375  .00000001  00000+0 -32443-4 0  9991
2 48781  87.9065   9.9992 0001759  91.6944 268.4388 13.15547809171469
ONEWEB-0231             
1 48782U 21045R   24342.53603058  .00000179  00000+0  44070-3 0  9990
2 48782  87.9081  10.0600 0001631  85.1642 274.9674 13.15548625171152
ONEWEB-0234             
1 48783U 21045S   24342.55583515  .00000008  00000+0 -11569-4 0  9998
2 48783  87.9072  10.0017 0002051 131.0810 229.0498 13.15549020171290
ONEWEB-0238             
1 48784U 21045T   24342.50985787 -.00000342  00000+0 -94370-3 0  9993
2 48784  87.9071  10.0276 0001823  99.2394 260.8943 13.15547771171182
ONEWEB-0240             
1 48785U 21045U   24342.51939504  .00000044  00000+0  82187-4 0  9992
2 48785  87.9070   9.9922 0001337  90.3109 269.8175 13.15548993172334
ONEWEB-0246             
1 48786U 21045V   24342.51384105  .00000039  00000+0  70739-4 0  9998
2 48786  87.9072  10.0004 0001785  87.9823 272.1512 13.15548345171087
